QIANFAN-105             
1 66047U 25233Q   25347.63676093  .00000099  00000+0  60426-4 0  9998
2 66047  88.9960  62.0355 0016552  41.8332 318.4107 13.97837212  8113
QIANFAN-106             
1 66048U 25233R   25347.51181969  .00000062  00000+0  43258-4 0  9993
2 66048  88.9953  62.0705 0016963  41.8201 318.4262 13.84893637  8083
QIANFAN-107             
1 66049U 25233S   25347.57351020  .00000058  00000+0  41281-4 0  9996
2 66049  88.9962  62.0629 0016245  44.2882 315.9583 13.82194661  8092
QIANFAN-108             
1 66050U 25233T   25347.14373043  .00000059  00000+0  41385-4 0  9996
2 66050  88.9958  62.1096 0016249  46.4334 313.8181 13.83394637  8039
