<?xml version="1.0" encoding="UTF-8"?>
<ndm xmlns:xsi="http://www.w3.org/2001/XMLSchema-instance" xsi:noNamespaceSchemaLocation="https://sanaregistry.org/r/ndmxml_unqualified/ndmxml-2.0.0-master-2.0.xsd">
<omm id="CCSDS_OMM_VERS" version="2.0">
<header><CREATION_DATE/><ORIGINATOR/></header><body><segment><metadata><OBJECT_NAME>QIANFAN-105</OBJECT_NAME><OBJECT_ID>2025-233Q</OBJECT_ID><CENTER_NAME>EARTH</CENTER_NAME><REF_FRAME>TEME</REF_FRAME><TIME_SYSTEM>UTC</TIME_SYSTEM><MEAN_ELEMENT_THEORY>SGP4</MEAN_ELEMENT_THEORY></metadata><data><meanElements><EPOCH>2025-12-13T15:16:56.144352</EPOCH><MEAN_MOTION>13.97837212</MEAN_MOTION><ECCENTRICITY>.00165527</ECCENTRICITY><INCLINATION>88.9960</INCLINATION><RA_OF_ASC_NODE>62.0355</RA_OF_ASC_NODE><ARG_OF_PERICENTER>41.8332</ARG_OF_PERICENTER><MEAN_ANOMALY>318.4107</MEAN_ANOMALY></meanElements><tleParameters><EPHEMERIS_TYPE>0</EPHEMERIS_TYPE><CLASSIFICATION_TYPE>U</CLASSIFICATION_TYPE><NORAD_CAT_ID>66047</NORAD_CAT_ID><ELEMENT_SET_NO>999</ELEMENT_SET_NO><REV_AT_EPOCH>811</REV_AT_EPOCH><BSTAR>.60426029E-4</BSTAR><MEAN_MOTION_DOT>.99E-6</MEAN_MOTION_DOT><MEAN_MOTION_DDOT>0</MEAN_MOTION_DDOT></tleParameters></data></segment></body></omm>
<omm id="CCSDS_OMM_VERS" version="2.0">
<header><CREATION_DATE/><ORIGINATOR/></header><body><segment><metadata><OBJECT_NAME>QIANFAN-106</OBJECT_NAME><OBJECT_ID>2025-233R</OBJECT_ID><CENTER_NAME>EARTH</CENTER_NAME><REF_FRAME>TEME</REF_FRAME><TIME_SYSTEM>UTC</TIME_SYSTEM><MEAN_ELEMENT_THEORY>SGP4</MEAN_ELEMENT_THEORY></metadata><data><meanElements><EPOCH>2025-12-13T12:17:01.221216</EPOCH><MEAN_MOTION>13.84893637</MEAN_MOTION><ECCENTRICITY>.00169631</ECCENTRICITY><INCLINATION>88.9953</INCLINATION><RA_OF_ASC_NODE>62.0705</RA_OF_ASC_NODE><ARG_OF_PERICENTER>41.8201</ARG_OF_PERICENTER><MEAN_ANOMALY>318.4262</MEAN_ANOMALY></meanElements><tleParameters><EPHEMERIS_TYPE>0</EPHEMERIS_TYPE><CLASSIFICATION_TYPE>U</CLASSIFICATION_TYPE><NORAD_CAT_ID>66048</NORAD_CAT_ID><ELEMENT_SET_NO>999</ELEMENT_SET_NO><REV_AT_EPOCH>808</REV_AT_EPOCH><BSTAR>.43258078E-4</BSTAR><MEAN_MOTION_DOT>.62E-6</MEAN_MOTION_DOT><MEAN_MOTION_DDOT>0</MEAN_MOTION_DDOT></tleParameters></data></segment></body></omm>
<omm id="CCSDS_OMM_VERS" version="2.0">
<header><CREATION_DATE/><ORIGINATOR/></header><body><segment><metadata><OBJECT_NAME>QIANFAN-107</OBJECT_NAME><OBJECT_ID>2025-233S</OBJECT_ID><CENTER_NAME>EARTH</CENTER_NAME><REF_FRAME>TEME</REF_FRAME><TIME_SYSTEM>UTC</TIME_SYSTEM><MEAN_ELEMENT_THEORY>SGP4</MEAN_ELEMENT_THEORY></metadata><data><meanElements><EPOCH>2025-12-13T13:45:51.281280</EPOCH><MEAN_MOTION>13.82194661</MEAN_MOTION><ECCENTRICITY>.00162456</ECCENTRICITY><INCLINATION>88.9962</INCLINATION><RA_OF_ASC_NODE>62.0629</RA_OF_ASC_NODE><ARG_OF_PERICENTER>44.2882</ARG_OF_PERICENTER><MEAN_ANOMALY>315.9583</MEAN_ANOMALY></meanElements><tleParameters><EPHEMERIS_TYPE>0</EPHEMERIS_TYPE><CLASSIFICATION_TYPE>U</CLASSIFICATION_TYPE><NORAD_CAT_ID>66049</NORAD_CAT_ID><ELEMENT_SET_NO>999</ELEMENT_SET_NO><REV_AT_EPOCH>809</REV_AT_EPOCH><BSTAR>.4128075E-4</BSTAR><MEAN_MOTION_DOT>.58E-6</MEAN_MOTION_DOT><MEAN_MOTION_DDOT>0</MEAN_MOTION_DDOT></tleParameters></data></segment></body></omm>
<omm id="CCSDS_OMM_VERS" version="2.0">
<header><CREATION_DATE/><ORIGINATOR/></header><body><segment><metadata><OBJECT_NAME>QIANFAN-108</OBJECT_NAME><OBJECT_ID>2025-233T</OBJECT_ID><CENTER_NAME>EARTH</CENTER_NAME><REF_FRAME>TEME</REF_FRAME><TIME_SYSTEM>UTC</TIME_SYSTEM><MEAN_ELEMENT_THEORY>SGP4</MEAN_ELEMENT_THEORY></metadata><data><meanElements><EPOCH>2025-12-13T03:26:58.309152</EPOCH><MEAN_MOTION>13.83394637</MEAN_MOTION><ECCENTRICITY>.00162499</ECCENTRICITY><INCLINATION>88.9958</INCLINATION><RA_OF_ASC_NODE>62.1096</RA_OF_ASC_NODE><ARG_OF_PERICENTER>46.4334</ARG_OF_PERICENTER><MEAN_ANOMALY>313.8181</MEAN_ANOMALY></meanElements><tleParameters><EPHEMERIS_TYPE>0</EPHEMERIS_TYPE><CLASSIFICATION_TYPE>U</CLASSIFICATION_TYPE><NORAD_CAT_ID>66050</NORAD_CAT_ID><ELEMENT_SET_NO>999</ELEMENT_SET_NO><REV_AT_EPOCH>803</REV_AT_EPOCH><BSTAR>.41385178E-4</BSTAR><MEAN_MOTION_DOT>.59E-6</MEAN_MOTION_DOT><MEAN_MOTION_DDOT>0</MEAN_MOTION_DDOT></tleParameters></data></segment></body></omm>
</ndm>
